IRIDIUM 171             
1 43929U 19002H   23278.89031121  .00000714  00000+0  24800-3 0  9994
2 43929  86.3992  45.5380 0002193  96.5082 263.6364 14.34218571247735
IRIDIUM 170             
1 43930U 19002J   23278.90526016  .00002800  00000+0  43986-3 0  9994
2 43930  86.6113  45.3896 0002195  90.5813 269.5655 14.72265751254294
IRIDIUM 167             
1 43931U 19002K   23278.81420125  .00000674  00000+0  23369-3 0  9999
2 43931  86.3985  45.3865 0002105  97.1254 263.0181 14.34221331247725
IRIDIUM 181             
1 56726U 23068S   23278.88358729  .00000321  00000+0  88942-4 0  9997
2 56726  86.8574  86.7309 0001110 116.8911 243.2404 14.43581101 20301
IRIDIUM 177             
1 56727U 23068T   23278.96144801  .00001224  00000+0  15754-3 0  9994
2 56727  86.1937  76.5209 0002410  94.6452 265.5044 14.80229834 20626
IRIDIUM 174             
1 56728U 23068U   23278.95601722  .00001079  00000+0  13854-3 0  9991
2 56728  86.1945  76.6069 0002397  86.7704 273.3791 14.80229085 20621
IRIDIUM 178             
1 56729U 23068V   23278.88282889 -.00010313  00000+0 -13639-2 0  9996
2 56729  86.5731  82.0107 0002464  82.6891 277.4610 14.80218309 20611
IRIDIUM 179             
1 56730U 23068W   23278.87742958  .00001186  00000+0  15264-3 0  9998
2 56730  86.6743  82.9331 0002632  91.5662 268.5861 14.80245248 20618
